{
  "type": "FeatureCollection",
  "features": [
    {
      "type": "Feature",
      "properties": {
        "norad_id": 30893,
        "name": "FENGYUN 1C DEB",
        "group": "fengyun-1c-debris",
        "lat": 72.95647060635777,
        "lon": -126.89211925208853,
        "alt_km": 747.5787976135161,
        "timestamp": "2025-12-24T22:42:22.310665+00:00",
        "meta_object_name": "FENGYUN 1C DEB",
        "meta_object_id": "1999-025AYF",
        "meta_epoch": "2025-12-18T08:03:40.157280",
        "meta_mean_motion": 13.9408223,
        "meta_eccentricity": 0.03091633,
        "meta_inclination": 98.2558,
        "meta_ra_of_asc_node": 18.9197,
        "meta_arg_of_pericenter": 77.2706,
        "meta_mean_anomaly": 348.8675,
        "meta_ephemeris_type": 0,
        "meta_classification_type": "U",
        "meta_norad_cat_id": 30893,
        "meta_element_set_no": 999,
        "meta_rev_at_epoch": 94963,
        "meta_bstar": 0.00050651987,
        "meta_mean_motion_dot": 9.62e-06,
        "meta_mean_motion_ddot": 0,
        "tle_line1": "1 30893U 99025AYF 25352.33588145  .00000962  00000+0  50652-3 0  9999",
        "tle_line2": "2 30893  98.2558  18.9197 0309163  77.2706 348.8675 13.94082230949632"
      },
      "geometry": {
        "type": "Point",
        "coordinates": [
          -126.89211925208853,
          72.95647060635777
        ]
      }
    },
    {
      "type": "Feature",
      "properties": {
        "norad_id": 30895,
        "name": "FENGYUN 1C DEB",
        "group": "fengyun-1c-debris",
        "lat": -23.019964536813447,
        "lon": -116.24422222236029,
        "alt_km": 854.6888703711384,
        "timestamp": "2025-12-24T22:42:22.310675+00:00",
        "meta_object_name": "FENGYUN 1C DEB",
        "meta_object_id": "1999-025AYH",
        "meta_epoch": "2025-12-24T03:28:14.481984",
        "meta_mean_motion": 14.31571229,
        "meta_eccentricity": 0.02182764,
        "meta_inclination": 98.7175,
        "meta_ra_of_asc_node": 66.6884,
        "meta_arg_of_pericenter": 90.7256,
        "meta_mean_anomaly": 301.9835,
        "meta_ephemeris_type": 0,
        "meta_classification_type": "U",
        "meta_norad_cat_id": 30895,
        "meta_element_set_no": 999,
        "meta_rev_at_epoch": 97956,
        "meta_bstar": 0.00027034403,
        "meta_mean_motion_dot": 8.85e-06,
        "meta_mean_motion_ddot": 0,
        "tle_line1": "1 30895U 99025AYH 25358.14461206  .00000885  00000+0  27034-3 0  9996",
        "tle_line2": "2 30895  98.7175  66.6884 0218276  90.7256 301.9835 14.31571229979567"
      },
      "geometry": {
        "type": "Point",
        "coordinates": [
          -116.24422222236029,
          -23.019964536813447
        ]
      }
    },
    {
      "type": "Feature",
      "properties": {
        "norad_id": 30898,
        "name": "FENGYUN 1C DEB",
        "group": "fengyun-1c-debris",
        "lat": 43.20380680712274,
        "lon": -95.74046765232474,
        "alt_km": 465.7606661356085,
        "timestamp": "2025-12-24T22:42:22.310688+00:00",
        "meta_object_name": "FENGYUN 1C DEB",
        "meta_object_id": "1999-025AYL",
        "meta_epoch": "2025-12-24T00:27:03.417120",
        "meta_mean_motion": 15.23675787,
        "meta_eccentricity": 0.00415648,
        "meta_inclination": 99.0261,
        "meta_ra_of_asc_node": 271.7313,
        "meta_arg_of_pericenter": 76.1549,
        "meta_mean_anomaly": 284.4302,
        "meta_ephemeris_type": 0,
        "meta_classification_type": "U",
        "meta_norad_cat_id": 30898,
        "meta_element_set_no": 999,
        "meta_rev_at_epoch": 66543,
        "meta_bstar": 0.0034432055,
        "meta_mean_motion_dot": 0.00085416,
        "meta_mean_motion_ddot": 0,
        "tle_line1": "1 30898U 99025AYL 25358.01878955  .00085416  00000+0  34432-2 0  9990",
        "tle_line2": "2 30898  99.0261 271.7313 0041564  76.1549 284.4302 15.23675787665431"
      },
      "geometry": {
        "type": "Point",
        "coordinates": [
          -95.74046765232474,
          43.20380680712274
        ]
      }
    },
    {
      "type": "Feature",
      "properties": {
        "norad_id": 30899,
        "name": "FENGYUN 1C DEB",
        "group": "fengyun-1c-debris",
        "lat": 0.23491629732976177,
        "lon": -102.85407986074735,
        "alt_km": 787.7566918618058,
        "timestamp": "2025-12-24T22:42:22.310698+00:00",
        "meta_object_name": "FENGYUN 1C DEB",
        "meta_object_id": "1999-025AYM",
        "meta_epoch": "2025-12-22T12:39:57.136896",
        "meta_mean_motion": 14.33729751,
        "meta_eccentricity": 0.00306026,
        "meta_inclination": 99.1768,
        "meta_ra_of_asc_node": 254.6206,
        "meta_arg_of_pericenter": 262.1688,
        "meta_mean_anomaly": 222.6158,
        "meta_ephemeris_type": 0,
        "meta_classification_type": "U",
        "meta_norad_cat_id": 30899,
        "meta_element_set_no": 999,
        "meta_rev_at_epoch": 96795,
        "meta_bstar": 0.0023049821,
        "meta_mean_motion_dot": 6.39e-05,
        "meta_mean_motion_ddot": 0,
        "tle_line1": "1 30899U 99025AYM 25356.52774464  .00006390  00000+0  23050-2 0  9993",
        "tle_line2": "2 30899  99.1768 254.6206 0030602 262.1688 222.6158 14.33729751967954"
      },
      "geometry": {
        "type": "Point",
        "coordinates": [
          -102.85407986074735,
          0.23491629732976177
        ]
      }
    },
    {
      "type": "Feature",
      "properties": {
        "norad_id": 30903,
        "name": "FENGYUN 1C DEB",
        "group": "fengyun-1c-debris",
        "lat": -14.87752017027332,
        "lon": -112.68305317788463,
        "alt_km": 888.1823837955162,
        "timestamp": "2025-12-24T22:42:22.310708+00:00",
        "meta_object_name": "FENGYUN 1C DEB",
        "meta_object_id": "1999-025AYR",
        "meta_epoch": "2025-12-23T22:43:24.937824",
        "meta_mean_motion": 13.97601805,
        "meta_eccentricity": 0.0096602,
        "meta_inclination": 99.3704,
        "meta_ra_of_asc_node": 243.7838,
        "meta_arg_of_pericenter": 63.0235,
        "meta_mean_anomaly": 298.0753,
        "meta_ephemeris_type": 0,
        "meta_classification_type": "U",
        "meta_norad_cat_id": 30903,
        "meta_element_set_no": 999,
        "meta_rev_at_epoch": 68861,
        "meta_bstar": 1.9133e-05,
        "meta_mean_motion_dot": -1.8e-07,
        "meta_mean_motion_ddot": 0,
        "tle_line1": "1 30903U 99025AYR 25357.94681641 -.00000018  00000+0  19133-4 0  9991",
        "tle_line2": "2 30903  99.3704 243.7838 0096602  63.0235 298.0753 13.97601805688619"
      },
      "geometry": {
        "type": "Point",
        "coordinates": [
          -112.68305317788463,
          -14.87752017027332
        ]
      }
    },
    {
      "type": "Feature",
      "properties": {
        "norad_id": 30905,
        "name": "FENGYUN 1C DEB",
        "group": "fengyun-1c-debris",
        "lat": 31.227699219013537,
        "lon": -100.20208027415289,
        "alt_km": 839.0460707948969,
        "timestamp": "2025-12-24T22:42:22.310720+00:00",
        "meta_object_name": "FENGYUN 1C DEB",
        "meta_object_id": "1999-025AYT",
        "meta_epoch": "2025-12-23T10:26:55.840128",
        "meta_mean_motion": 14.17883966,
        "meta_eccentricity": 0.00562256,
        "meta_inclination": 98.8882,
        "meta_ra_of_asc_node": 72.8422,
        "meta_arg_of_pericenter": 50.3782,
        "meta_mean_anomaly": 310.2336,
        "meta_ephemeris_type": 0,
        "meta_classification_type": "U",
        "meta_norad_cat_id": 30905,
        "meta_element_set_no": 999,
        "meta_rev_at_epoch": 96274,
        "meta_bstar": 0.001041541,
        "meta_mean_motion_dot": 2.117e-05,
        "meta_mean_motion_ddot": 0,
        "tle_line1": "1 30905U 99025AYT 25357.43536852  .00002117  00000+0  10415-2 0  9993",
        "tle_line2": "2 30905  98.8882  72.8422 0056225  50.3782 310.2336 14.17883966962741"
      },
      "geometry": {
        "type": "Point",
        "coordinates": [
          -100.20208027415289,
          31.227699219013537
        ]
      }
    },
    {
      "type": "Feature",
      "properties": {
        "norad_id": 30907,
        "name": "FENGYUN 1C DEB",
        "group": "fengyun-1c-debris",
        "lat": -17.968762891865804,
        "lon": 23.664142032791776,
        "alt_km": 868.8173275819436,
        "timestamp": "2025-12-24T22:42:22.310730+00:00",
        "meta_object_name": "FENGYUN 1C DEB",
        "meta_object_id": "1999-025AYV",
        "meta_epoch": "2025-12-17T21:06:12.131712",
        "meta_mean_motion": 14.15106189,
        "meta_eccentricity": 0.00565923,
        "meta_inclination": 99.9513,
        "meta_ra_of_asc_node": 12.5269,
        "meta_arg_of_pericenter": 124.1859,
        "meta_mean_anomaly": 236.4694,
        "meta_ephemeris_type": 0,
        "meta_classification_type": "U",
        "meta_norad_cat_id": 30907,
        "meta_element_set_no": 999,
        "meta_rev_at_epoch": 1622,
        "meta_bstar": 0.00072022378,
        "meta_mean_motion_dot": 1.366e-05,
        "meta_mean_motion_ddot": 0,
        "tle_line1": "1 30907U 99025AYV 25351.87930708  .00001366  00000+0  72022-3 0  9993",
        "tle_line2": "2 30907  99.9513  12.5269 0056592 124.1859 236.4694 14.15106189 16220"
      },
      "geometry": {
        "type": "Point",
        "coordinates": [
          23.664142032791776,
          -17.968762891865804
        ]
      }
    }
  ]
}